{
"type": "FeatureCollection",
"name": "67_river",
"crs": { "type": "name", "properties": { "name": "urn:ogc:def:crs:OGC:1.3:CRS84" } },
"features": [
{ "type": "Feature", "properties": { "id": null }, "geometry": { "type": "MultiPolygon", "coordinates": [ [ [ [ 72.837336509588553, 19.110304673498966 ], [ 72.837430335017089, 19.11029950197393 ], [ 72.837574200674169, 19.110289897712725 ], [ 72.837874442045461, 19.110327575965048 ], [ 72.838166082752466, 19.110356388740446 ], [ 72.838402991959512, 19.110357866318541 ], [ 72.8386359917737, 19.110359343896612 ], [ 72.838928414359273, 19.110349739638878 ], [ 72.839218491309154, 19.11034530690435 ], [ 72.839568772908976, 19.11029802439532 ], [ 72.840041027565917, 19.11029802439532 ], [ 72.840069175194472, 19.110206414495607 ], [ 72.839697000994661, 19.110206414495607 ], [ 72.839401450894783, 19.110253697030831 ], [ 72.839130920909199, 19.110265517662526 ], [ 72.838955780109259, 19.110268472820316 ], [ 72.838705578966511, 19.110284726187224 ], [ 72.838410028866647, 19.110265517662526 ], [ 72.838105096223941, 19.110215279971996 ], [ 72.837712593181251, 19.110167997425798 ], [ 72.83734198273855, 19.110105939063384 ], [ 72.837336509588553, 19.110304673498966 ] ] ] ] } },
{ "type": "Feature", "properties": { "id": null }, "geometry": { "type": "MultiPolygon", "coordinates": [ [ [ [ 72.828341778506825, 19.116186070349997 ], [ 72.828140053835469, 19.116178682719834 ], [ 72.828122852506937, 19.116466800051438 ], [ 72.828047792164114, 19.116589434455612 ], [ 72.827953966735578, 19.116697293555173 ], [ 72.827756933335664, 19.116803675063885 ], [ 72.827636524035739, 19.11692483169875 ], [ 72.827516114735772, 19.117068151018014 ], [ 72.827487967107217, 19.117170099736512 ], [ 72.827383195378701, 19.117184874907885 ], [ 72.827179906950221, 19.117342969158944 ], [ 72.827020403721718, 19.117536523596879 ], [ 72.826912504478912, 19.117625174408811 ], [ 72.826734236164711, 19.11778770077386 ], [ 72.826520001436222, 19.117956137019931 ], [ 72.826341733122021, 19.118092067900374 ], [ 72.826213505036364, 19.11825754882134 ], [ 72.826133753422127, 19.118392001947644 ], [ 72.826027417936444, 19.118501337376305 ], [ 72.825913263665043, 19.118585555157185 ], [ 72.825835075807959, 19.118641700320605 ], [ 72.82572874032229, 19.118696367961387 ], [ 72.825622404836622, 19.118746603074822 ], [ 72.825481666693818, 19.118808658193856 ], [ 72.825394096293849, 19.118858893273167 ], [ 72.825470720393838, 19.119173600922533 ], [ 72.825539525708095, 19.119257818360882 ], [ 72.825622404836636, 19.11931396329593 ], [ 72.825659935008048, 19.119279980837515 ], [ 72.825630223622355, 19.119220880893206 ], [ 72.825633351136631, 19.119161780927758 ], [ 72.825664626279476, 19.119092338441362 ], [ 72.825775653036573, 19.118977093399536 ], [ 72.826019599150754, 19.118723701775004 ], [ 72.826098568886422, 19.118654259104538 ], [ 72.826204904372105, 19.118552311301432 ], [ 72.826287783500632, 19.118468093503616 ], [ 72.826429303521991, 19.118298180272145 ], [ 72.826560659121952, 19.11822430489962 ], [ 72.826658393943333, 19.118171114610966 ], [ 72.826779585121827, 19.118063256473093 ], [ 72.826929705807501, 19.118013021151974 ], [ 72.827082954007437, 19.117871180162883 ], [ 72.827145504293128, 19.11777366441228 ], [ 72.827279987407351, 19.117631823217788 ], [ 72.827394141678738, 19.11759340787334 ], [ 72.827452000692986, 19.117552037492395 ], [ 72.827472329535823, 19.117516577157648 ], [ 72.827625577735759, 19.117407241077597 ], [ 72.827688128021464, 19.117355528041561 ], [ 72.827772570907115, 19.117237326755603 ], [ 72.827878906392826, 19.117099917654446 ], [ 72.827944584192778, 19.117058547149998 ], [ 72.828018080778449, 19.116983193704584 ], [ 72.828060302221303, 19.116896020068019 ], [ 72.828147872621273, 19.116833964230924 ], [ 72.828194785335526, 19.116776340932773 ], [ 72.828240134292642, 19.116721672656976 ], [ 72.828279228221191, 19.116640408970351 ], [ 72.82828391949262, 19.116565055334327 ], [ 72.828301120821195, 19.11651186451175 ], [ 72.828341778506825, 19.116186070349997 ] ] ] ] } },
{ "type": "Feature", "properties": { "id": null }, "geometry": { "type": "MultiPolygon", "coordinates": [ [ [ [ 72.830131498556085, 19.112282400572951 ], [ 72.830298820570263, 19.112176754935835 ], [ 72.830538075413031, 19.11205854994714 ], [ 72.831387195541225, 19.11160789265254 ], [ 72.832147181512298, 19.111203038822513 ], [ 72.832883711126257, 19.110829213055467 ], [ 72.833817274140145, 19.110319449283935 ], [ 72.83373595876877, 19.110182034433134 ], [ 72.833115147183335, 19.110548473781506 ], [ 72.832805523269158, 19.110712484678395 ], [ 72.832230842519436, 19.11101464847242 ], [ 72.831844594505327, 19.111217814527162 ], [ 72.831101809862787, 19.111603459951738 ], [ 72.830540421048724, 19.11190340577124 ], [ 72.830133844191792, 19.112091056327447 ], [ 72.830140881098941, 19.112109525858862 ], [ 72.830131498556085, 19.112282400572951 ] ] ] ] } },
{ "type": "Feature", "properties": { "id": null }, "geometry": { "type": "MultiPolygon", "coordinates": [ [ [ [ 72.829778871320514, 19.112431634155136 ], [ 72.829773398170516, 19.112283139353394 ], [ 72.829707720370536, 19.11229791496153 ], [ 72.829552126534892, 19.112368837862213 ], [ 72.829272214006451, 19.112520287704541 ], [ 72.828956335063737, 19.112708676339206 ], [ 72.828613872249591, 19.112925877086877 ], [ 72.828498154221066, 19.113016007925619 ], [ 72.828329268449707, 19.11323173071716 ], [ 72.828282355735453, 19.11341937976583 ], [ 72.82824638932118, 19.11360259595433 ], [ 72.828224496721191, 19.113906970786385 ], [ 72.82819322157836, 19.114319205709222 ], [ 72.828180711521199, 19.114586640718766 ], [ 72.828185402792656, 19.114780198383983 ], [ 72.828185402792656, 19.115022514530931 ], [ 72.828157255164086, 19.11523084703186 ], [ 72.828160382678377, 19.115641601122746 ], [ 72.828155691406948, 19.116022803646509 ], [ 72.828330832206859, 19.116031668811015 ], [ 72.828326140935417, 19.115784921554564 ], [ 72.828307375849732, 19.115479072647648 ], [ 72.828276100706873, 19.11520868401233 ], [ 72.828287047006867, 19.115010694239324 ], [ 72.828282355735453, 19.114843732530041 ], [ 72.828290174521157, 19.114623579221991 ], [ 72.828305812092594, 19.114159631022314 ], [ 72.828316758392589, 19.114066545717165 ], [ 72.828344906021144, 19.113935044164997 ], [ 72.828366798621133, 19.113847868921088 ], [ 72.828394946249674, 19.113567134772403 ], [ 72.828430912663961, 19.11343120017122 ], [ 72.828487207921086, 19.113295265458273 ], [ 72.828537248149615, 19.113190359244705 ], [ 72.828566959535337, 19.113160808186613 ], [ 72.828651402421016, 19.113076587642077 ], [ 72.828707697678141, 19.113032261022457 ], [ 72.828860945878063, 19.112937697527549 ], [ 72.82911271077792, 19.112775166394307 ], [ 72.829345710592122, 19.112640708699697 ], [ 72.829553690292059, 19.112525459160135 ], [ 72.829656898263423, 19.112469311919462 ], [ 72.829778871320514, 19.112431634155136 ] ] ] ] } },
{ "type": "Feature", "properties": { "id": null }, "geometry": { "type": "MultiPolygon", "coordinates": [ [ [ [ 72.834038545775769, 19.110198287808551 ], [ 72.834077639704333, 19.110145833727643 ], [ 72.834199612761424, 19.110085252937441 ], [ 72.83435911598994, 19.110018761800699 ], [ 72.834584297018395, 19.109964091290465 ], [ 72.834832934404005, 19.109925674164348 ], [ 72.834956471218234, 19.109906465597948 ], [ 72.835065934218193, 19.10991385350836 ], [ 72.835166014675295, 19.109934539655782 ], [ 72.835464692289435, 19.109990687757158 ], [ 72.835592920375106, 19.110012851476142 ], [ 72.835808718860704, 19.110042403096827 ], [ 72.836159000460569, 19.110123670026493 ], [ 72.836473315646145, 19.110169475005613 ], [ 72.836950261574501, 19.110247786714712 ], [ 72.837014375617301, 19.110286203766002 ], [ 72.836987791745898, 19.110131057927209 ], [ 72.83682828851741, 19.110101506322366 ], [ 72.836553067260382, 19.110054223743628 ], [ 72.836313812417629, 19.110006941151369 ], [ 72.835810282617842, 19.10991385350836 ], [ 72.835297370275214, 19.10981928823006 ], [ 72.835006511446778, 19.109788258986331 ], [ 72.834828243132577, 19.109791214152651 ], [ 72.834632773489787, 19.109817810647154 ], [ 72.834437303847025, 19.109859182963437 ], [ 72.834280928132813, 19.109910898344225 ], [ 72.834113606118606, 19.109983299850171 ], [ 72.833986159911504, 19.110040925515914 ], [ 72.833953321011521, 19.110043141887274 ], [ 72.834038545775769, 19.110198287808551 ] ] ] ] } }
]
}
